{"fetched_at":"2026-07-12T05:52:43.009Z","source":"https://celestrak.org/NORAD/elements/gp.php?GROUP=stations&FORMAT=JSON","constellation":"crewed-vehicles","records":[{"OBJECT_NAME":"CREW DRAGON 12","OBJECT_ID":"2026-031A","EPOCH":"2026-07-11T19:56:37.118688","CLASSIFICATION_TYPE":"U","MEAN_MOTION":15.48984818,"ECCENTRICITY":0.0006687,"INCLINATION":51.63,"RA_OF_ASC_NODE":178.1287,"ARG_OF_PERICENTER":284.5133,"MEAN_ANOMALY":75.5113,"EPHEMERIS_TYPE":0,"NORAD_CAT_ID":67796,"ELEMENT_SET_NO":999,"REV_AT_EPOCH":62843,"BSTAR":0.00010798,"MEAN_MOTION_DOT":0.00005501,"MEAN_MOTION_DDOT":0},{"OBJECT_NAME":"SHENZHOU-23 (SZ-23)","OBJECT_ID":"2026-113A","EPOCH":"2026-07-11T15:00:35.317728","CLASSIFICATION_TYPE":"U","MEAN_MOTION":15.58019839,"ECCENTRICITY":0.00025345,"INCLINATION":41.4689,"RA_OF_ASC_NODE":173.4699,"ARG_OF_PERICENTER":289.9919,"MEAN_ANOMALY":70.0645,"EPHEMERIS_TYPE":0,"NORAD_CAT_ID":69180,"ELEMENT_SET_NO":999,"REV_AT_EPOCH":29605,"BSTAR":0.000021991574,"MEAN_MOTION_DOT":0.00001368,"MEAN_MOTION_DDOT":0}]}
