CREW DRAGON 12          
1 67796U 26031A   26192.83098518  .00005501  00000+0  10798-3 0  9997
2 67796  51.6300 178.1287 0006687 284.5133  75.5113 15.48984818628430
SHENZHOU-23 (SZ-23)     
1 69180U 26113A   26192.62540877  .00001368  00000+0  21992-4 0  9990
2 69180  41.4689 173.4699 0002534 289.9919  70.0645 15.58019839296051
